{
"type": "FeatureCollection",
"name": "lago_santa_giustina",
"crs": { "type": "name", "properties": { "name": "urn:ogc:def:crs:OGC:1.3:CRS84" } },
"features": [
{ "type": "Feature", "properties": { "fid": 169729, "Hylak_id": 169729, "Lake_name": null, "Country": "Italy", "Continent": "Europe", "Poly_src": "SWBD", "Lake_type": 2, "Grand_id": 3355, "Lake_area": 2.69, "Shore_len": 12.9, "Shore_dev": 2.22, "Vol_total": 182.8, "Vol_res": 182.8, "Vol_src": 2, "Depth_avg": 68.1, "Dis_avg": 24.587, "Res_time": 86.1, "Elevation": 518, "Slope_100": 12.33, "Wshd_area": 1038.9, "Pour_long": 11.060863, "Pour_lat": 46.349319 }, "geometry": { "type": "Polygon", "coordinates": [ [ [ 11.049598117404685, 46.378432345920487 ], [ 11.051555379232013, 46.376947157118366 ], [ 11.054673258463822, 46.379236924913585 ], [ 11.056716172960364, 46.378818630642684 ], [ 11.05882500542549, 46.37950276692743 ], [ 11.060241156684242, 46.380431315104488 ], [ 11.060661078559292, 46.381725531684367 ], [ 11.062438083224947, 46.383575032552415 ], [ 11.063581203884667, 46.384163953993379 ], [ 11.063642713758838, 46.383129069010806 ], [ 11.062821926540892, 46.381437445747054 ], [ 11.061663886176405, 46.380002712674013 ], [ 11.0610633002388, 46.378764919705191 ], [ 11.05563022189682, 46.37675862630249 ], [ 11.05445604112424, 46.375211317274704 ], [ 11.055420803494087, 46.371472710503781 ], [ 11.056436564127694, 46.370806749132328 ], [ 11.056385972765042, 46.368330891927542 ], [ 11.056691758897671, 46.367437608507316 ], [ 11.056332872178928, 46.363926323785051 ], [ 11.057213880750965, 46.363079969618468 ], [ 11.057497083876001, 46.361386176215774 ], [ 11.059130588107905, 46.359784071181082 ], [ 11.05972235785606, 46.358635253906755 ], [ 11.059998711480205, 46.356373697917036 ], [ 11.060847574869911, 46.355558268229515 ], [ 11.060836859809172, 46.354410536024716 ], [ 11.059906005859602, 46.352603624132314 ], [ 11.060771416558339, 46.351702745226078 ], [ 11.062497219509851, 46.35084716796905 ], [ 11.061709323459468, 46.349191351996865 ], [ 11.060972222222404, 46.348472222222597 ], [ 11.059725002712923, 46.348715820312975 ], [ 11.060282457139863, 46.35000081380241 ], [ 11.058613891601738, 46.351947157118445 ], [ 11.057210150824801, 46.353073730469134 ], [ 11.055921291775462, 46.353699001736459 ], [ 11.055298394097349, 46.35498291015665 ], [ 11.053614976671156, 46.356003960503813 ], [ 11.050585666232791, 46.357198621962198 ], [ 11.049985758463777, 46.35777506510459 ], [ 11.050012817382992, 46.359099934896221 ], [ 11.049477878146888, 46.361294487847545 ], [ 11.048591851128663, 46.363362630208655 ], [ 11.04862935384125, 46.365200466580177 ], [ 11.048058336046154, 46.367224934896171 ], [ 11.046311238606961, 46.367566189236584 ], [ 11.04538798014346, 46.371708713107978 ], [ 11.04500278049062, 46.37250271267402 ], [ 11.04331739637604, 46.373049587674018 ], [ 11.044996812608701, 46.374150933160081 ], [ 11.04501925998278, 46.375804036458646 ], [ 11.044427422417755, 46.376988118489976 ], [ 11.04280470106346, 46.37854709201423 ], [ 11.042235785590492, 46.379719780816345 ], [ 11.041425645616528, 46.380112847222733 ], [ 11.04102199978314, 46.381768663194805 ], [ 11.040552775065294, 46.382219509548918 ], [ 11.039997219509644, 46.38388617621564 ], [ 11.039653049045285, 46.385649414062868 ], [ 11.038614366319564, 46.386647135417036 ], [ 11.038585679796199, 46.388052300347738 ], [ 11.039960259331849, 46.388080240885699 ], [ 11.040876329210221, 46.387608235677476 ], [ 11.04418287489159, 46.386944715712218 ], [ 11.045360378689338, 46.38571885850746 ], [ 11.047930501302233, 46.384193250868407 ], [ 11.047402140299653, 46.382131618924006 ], [ 11.049598117404685, 46.378432345920487 ] ] ] } },
{ "type": "Feature", "properties": { "fid": 1354293, "Hylak_id": 1354293, "Lake_name": null, "Country": "Italy", "Continent": "Europe", "Poly_src": "SWBD", "Lake_type": 1, "Grand_id": 0, "Lake_area": 0.11, "Shore_len": 1.48, "Shore_dev": 1.28, "Vol_total": 0.88, "Vol_res": 0.0, "Vol_src": 3, "Depth_avg": 8.2, "Dis_avg": 20.807, "Res_time": 0.5, "Elevation": 514, "Slope_100": 17.5, "Wshd_area": 800.3, "Pour_long": 11.03566, "Pour_lat": 46.390092 }, "geometry": { "type": "Polygon", "coordinates": [ [ [ 11.036435953776277, 46.389785156250412 ], [ 11.03597222222237, 46.389027777778097 ], [ 11.032498982747541, 46.389186469184438 ], [ 11.028616400824944, 46.390111490885829 ], [ 11.029074367947146, 46.390881618923913 ], [ 11.036381022135629, 46.39117133246566 ], [ 11.036435953776277, 46.389785156250412 ] ] ] } }
]
}
