{
  "type": "FeatureCollection",
  "features": [
    {
      "type": "Feature",
      "properties": {},
      "geometry": {
        "coordinates": [
          [
            [5.21152289608537, 51.293577496555],
            [5.2157537717300215, 51.29390820711822],
            [5.216648764654394, 51.29483672788871],
            [5.212804363228031, 51.29631214692364],
            [5.210546540167456, 51.29403540285395],
            [5.21152289608537, 51.293577496555]
          ]
        ],
        "type": "Polygon"
      }
    },
    {
      "type": "Feature",
      "properties": {},
      "geometry": {
        "coordinates": [
          [
            [5.184953213699487, 51.302529561903185],
            [5.18684873412775, 51.29976066572087],
            [5.187762030335165, 51.29981453688964],
            [5.18822729443977, 51.29912498115527],
            [5.192828239480491, 51.30045021190608],
            [5.190657006989852, 51.30437180884505],
            [5.184953213699487, 51.302529561903185]
          ]
        ],
        "type": "Polygon"
      }
    },
    {
      "type": "Feature",
      "properties": {},
      "geometry": {
        "coordinates": [
          [
            [5.224707856046194, 51.33150890859153],
            [5.2263203355232974, 51.32866808959025],
            [5.226611246769664, 51.32861095979757],
            [5.227616968504918, 51.329384802757374],
            [5.227841385750736, 51.331425815836155],
            [5.224707856046194, 51.33150890859153]
          ]
        ],
        "type": "Polygon"
      }
    }
  ]
}
